{"type": "FeatureCollection", "features": [ {"type": "Feature", "properties": {"norad_id": 57401, "name": "TIANMU-1 09", "group": "weather", "lat": 71.64177913420598, "lon": 21.256893126871137, "alt_km": 469.9741819822002, "timestamp": "2025-12-20T22:39:10.292373+00:00", "meta": {"OBJECT_NAME": "TIANMU-1 09", "OBJECT_ID": "2023-101C", "EPOCH": "2025-12-20T14:28:37.229952", "MEAN_MOTION": 15.28190318, "ECCENTRICITY": 0.00064887, "INCLINATION": 97.2811, "RA_OF_ASC_NODE": 43.5858, "ARG_OF_PERICENTER": 62.3709, "MEAN_ANOMALY": 297.8189, "EPHEMERIS_TYPE": 0, "CLASSIFICATION_TYPE": "U", "NORAD_CAT_ID": 57401, "ELEMENT_SET_NO": 999, "REV_AT_EPOCH": 13435, "BSTAR": 0.00018045899, "MEAN_MOTION_DOT": 4.887e-05, "MEAN_MOTION_DDOT": 0}, "tle": {"line1": "1 57401U 23101C   25354.60320868  .00004887  00000+0  18046-3 0  9994", "line2": "2 57401  97.2811  43.5858 0006488  62.3709 297.8189 15.28190318134351"}}, "geometry": {"type": "Point", "coordinates": [21.256893126871137, 71.64177913420598]}}, {"type": "Feature", "properties": {"norad_id": 57402, "name": "TIANMU-1 10", "group": "weather", "lat": -63.874927177795946, "lon": -150.3517629075655, "alt_km": 494.10057914382105, "timestamp": "2025-12-20T22:39:10.292384+00:00", "meta": {"OBJECT_NAME": "TIANMU-1 10", "OBJECT_ID": "2023-101D", "EPOCH": "2025-12-20T15:17:56.865408", "MEAN_MOTION": 15.28182041, "ECCENTRICITY": 0.00082282, "INCLINATION": 97.2892, "RA_OF_ASC_NODE": 44.4775, "ARG_OF_PERICENTER": 60.648, "MEAN_ANOMALY": 299.5581, "EPHEMERIS_TYPE": 0, "CLASSIFICATION_TYPE": "U", "NORAD_CAT_ID": 57402, "ELEMENT_SET_NO": 999, "REV_AT_EPOCH": 13435, "BSTAR": 0.00018293051, "MEAN_MOTION_DOT": 4.955e-05, "MEAN_MOTION_DDOT": 0}, "tle": {"line1": "1 57402U 23101D   25354.63746372  .00004955  00000+0  18293-3 0  9990", "line2": "2 57402  97.2892  44.4775 0008228  60.6480 299.5581 15.28182041134359"}}, "geometry": {"type": "Point", "coordinates": [-150.3517629075655, -63.874927177795946]}}, {"type": "Feature", "properties": {"norad_id": 57490, "name": "FENGYUN 3F", "group": "weather", "lat": -13.009720239223016, "lon": -118.92467440062035, "alt_km": 830.0561435464178, "timestamp": "2025-12-20T22:39:10.292393+00:00", "meta": {"OBJECT_NAME": "FENGYUN 3F", "OBJECT_ID": "2023-111A", "EPOCH": "2025-12-20T14:58:54.171840", "MEAN_MOTION": 14.19895462, "ECCENTRICITY": 7.586e-05, "INCLINATION": 98.7074, "RA_OF_ASC_NODE": 62.7901, "ARG_OF_PERICENTER": 113.8859, "MEAN_ANOMALY": 246.2397, "EPHEMERIS_TYPE": 0, "CLASSIFICATION_TYPE": "U", "NORAD_CAT_ID": 57490, "ELEMENT_SET_NO": 999, "REV_AT_EPOCH": 12352, "BSTAR": 4.2756311e-05, "MEAN_MOTION_DOT": 4.7e-07, "MEAN_MOTION_DDOT": 0}, "tle": {"line1": "1 57490U 23111A   25354.62423810  .00000047  00000+0  42756-4 0  9996", "line2": "2 57490  98.7074  62.7901 0000758 113.8859 246.2397 14.19895462123527"}}, "geometry": {"type": "Point", "coordinates": [-118.92467440062035, -13.009720239223016]}}, {"type": "Feature", "properties": {"norad_id": 58584, "name": "ARKTIKA-M 2", "group": "weather", "lat": 57.9735722802733, "lon": -132.14272601783728, "alt_km": 34782.68260615445, "timestamp": "2025-12-20T22:39:10.292405+00:00", "meta": {"OBJECT_NAME": "ARKTIKA-M 2", "OBJECT_ID": "2023-198A", "EPOCH": "2025-12-20T07:20:06.590112", "MEAN_MOTION": 2.00602824, "ECCENTRICITY": 0.68654675, "INCLINATION": 63.225, "RA_OF_ASC_NODE": 174.0676, "ARG_OF_PERICENTER": 268.0739, "MEAN_ANOMALY": 18.8406, "EPHEMERIS_TYPE": 0, "CLASSIFICATION_TYPE": "U", "NORAD_CAT_ID": 58584, "ELEMENT_SET_NO": 999, "REV_AT_EPOCH": 1473, "BSTAR": 0, "MEAN_MOTION_DOT": 2.01e-06, "MEAN_MOTION_DDOT": 0}, "tle": {"line1": "1 58584U 23198A   25354.30563183  .00000201  00000+0  00000+0 0  9992", "line2": "2 58584  63.2250 174.0676 6865467 268.0739  18.8406  2.00602824 14734"}}, "geometry": {"type": "Point", "coordinates": [-132.14272601783728, 57.9735722802733]}}, {"type": "Feature", "properties": {"norad_id": 58645, "name": "TIANMU-1 11", "group": "weather", "lat": -38.51685579826299, "lon": 20.327585777980946, "alt_km": 494.5921772821139, "timestamp": "2025-12-20T22:39:10.292415+00:00", "meta": {"OBJECT_NAME": "TIANMU-1 11", "OBJECT_ID": "2023-205A", "EPOCH": "2025-12-20T14:56:51.048384", "MEAN_MOTION": 15.24687402, "ECCENTRICITY": 0.00075361, "INCLINATION": 97.3595, "RA_OF_ASC_NODE": 14.1076, "ARG_OF_PERICENTER": 276.9903, "MEAN_ANOMALY": 83.0477, "EPHEMERIS_TYPE": 0, "CLASSIFICATION_TYPE": "U", "NORAD_CAT_ID": 58645, "ELEMENT_SET_NO": 999, "REV_AT_EPOCH": 11029, "BSTAR": 0.00016957907, "MEAN_MOTION_DOT": 4.123e-05, "MEAN_MOTION_DDOT": 0}, "tle": {"line1": "1 58645U 23205A   25354.62281306  .00004123  00000+0  16958-3 0  9998", "line2": "2 58645  97.3595  14.1076 0007536 276.9903  83.0477 15.24687402110295"}}, "geometry": {"type": "Point", "coordinates": [20.327585777980946, -38.51685579826299]}}, {"type": "Feature", "properties": {"norad_id": 58646, "name": "TIANMU-1 12", "group": "weather", "lat": 9.928450095515256, "lon": -164.47804107517365, "alt_km": 493.39086471639257, "timestamp": "2025-12-20T22:39:10.292425+00:00", "meta": {"OBJECT_NAME": "TIANMU-1 12", "OBJECT_ID": "2023-205B", "EPOCH": "2025-12-20T14:02:00.375648", "MEAN_MOTION": 15.24572258, "ECCENTRICITY": 0.0005819, "INCLINATION": 97.3582, "RA_OF_ASC_NODE": 13.8731, "ARG_OF_PERICENTER": 255.6721, "MEAN_ANOMALY": 104.3871, "EPHEMERIS_TYPE": 0, "CLASSIFICATION_TYPE": "U", "NORAD_CAT_ID": 58646, "ELEMENT_SET_NO": 999, "REV_AT_EPOCH": 11027, "BSTAR": 0.0001756407, "MEAN_MOTION_DOT": 4.257e-05, "MEAN_MOTION_DDOT": 0}, "tle": {"line1": "1 58646U 23205B   25354.58472657  .00004257  00000+0  17564-3 0  9997", "line2": "2 58646  97.3582  13.8731 0005819 255.6721 104.3871 15.24572258110275"}}, "geometry": {"type": "Point", "coordinates": [-164.47804107517365, 9.928450095515256]}}, {"type": "Feature", "properties": {"norad_id": 58647, "name": "TIANMU-1 13", "group": "weather", "lat": -12.750279293852987, "lon": 16.106565036111725, "alt_km": 498.4452421040669, "timestamp": "2025-12-20T22:39:10.292433+00:00", "meta": {"OBJECT_NAME": "TIANMU-1 13", "OBJECT_ID": "2023-205C", "EPOCH": "2025-12-20T13:15:29.127744", "MEAN_MOTION": 15.24615333, "ECCENTRICITY": 0.00062844, "INCLINATION": 97.3611, "RA_OF_ASC_NODE": 14.0456, "ARG_OF_PERICENTER": 232.1844, "MEAN_ANOMALY": 127.8826, "EPHEMERIS_TYPE": 0, "CLASSIFICATION_TYPE": "U", "NORAD_CAT_ID": 58647, "ELEMENT_SET_NO": 999, "REV_AT_EPOCH": 11026, "BSTAR": 0.00018384084, "MEAN_MOTION_DOT": 4.466e-05, "MEAN_MOTION_DDOT": 0}, "tle": {"line1": "1 58647U 23205C   25354.55242046  .00004466  00000+0  18384-3 0  9995", "line2": "2 58647  97.3611  14.0456 0006284 232.1844 127.8826 15.24615333110260"}}, "geometry": {"type": "Point", "coordinates": [16.106565036111725, -12.750279293852987]}}, {"type": "Feature", "properties": {"norad_id": 58648, "name": "TIANMU-1 14", "group": "weather", "lat": 75.69433550805341, "lon": -16.65858316989392, "alt_km": 489.3406907792405, "timestamp": "2025-12-20T22:39:10.292442+00:00", "meta": {"OBJECT_NAME": "TIANMU-1 14", "OBJECT_ID": "2023-205D", "EPOCH": "2025-12-20T14:26:12.936768", "MEAN_MOTION": 15.24598812, "ECCENTRICITY": 0.00070269, "INCLINATION": 97.3542, "RA_OF_ASC_NODE": 13.4354, "ARG_OF_PERICENTER": 238.2178, "MEAN_ANOMALY": 121.8376, "EPHEMERIS_TYPE": 0, "CLASSIFICATION_TYPE": "U", "NORAD_CAT_ID": 58648, "ELEMENT_SET_NO": 999, "REV_AT_EPOCH": 11027, "BSTAR": 0.0001793833, "MEAN_MOTION_DOT": 4.354e-05, "MEAN_MOTION_DDOT": 0}, "tle": {"line1": "1 58648U 23205D   25354.60153862  .00004354  00000+0  17938-3 0  9999", "line2": "2 58648  97.3542  13.4354 0007026 238.2178 121.8376 15.24598812110273"}}, "geometry": {"type": "Point", "coordinates": [-16.65858316989392, 75.69433550805341]}}, {"type": "Feature", "properties": {"norad_id": 58660, "name": "TIANMU-1 19", "group": "weather", "lat": 70.46327249086433, "lon": 84.35746320434818, "alt_km": 477.556555536069, "timestamp": "2025-12-20T22:39:10.292451+00:00", "meta": {"OBJECT_NAME": "TIANMU-1 19", "OBJECT_ID": "2023-208A", "EPOCH": "2025-12-20T12:54:32.025888", "MEAN_MOTION": 15.27981628, "ECCENTRICITY": 0.00044763, "INCLINATION": 97.4396, "RA_OF_ASC_NODE": 105.5603, "ARG_OF_PERICENTER": 218.5905, "MEAN_ANOMALY": 141.5015, "EPHEMERIS_TYPE": 0, "CLASSIFICATION_TYPE": "U", "NORAD_CAT_ID": 58660, "ELEMENT_SET_NO": 999, "REV_AT_EPOCH": 11001, "BSTAR": 0.00024723921, "MEAN_MOTION_DOT": 6.676e-05, "MEAN_MOTION_DDOT": 0}, "tle": {"line1": "1 58660U 23208A   25354.53787067  .00006676  00000+0  24724-3 0  9998", "line2": "2 58660  97.4396 105.5603 0004476 218.5905 141.5015 15.27981628110015"}}, "geometry": {"type": "Point", "coordinates": [84.35746320434818, 70.46327249086433]}}, {"type": "Feature", "properties": {"norad_id": 58661, "name": "TIANMU-1 20", "group": "weather", "lat": -1.341544956833288, "lon": -73.75397611420539, "alt_km": 478.6781615763957, "timestamp": "2025-12-20T22:39:10.292460+00:00", "meta": {"OBJECT_NAME": "TIANMU-1 20", "OBJECT_ID": "2023-208B", "EPOCH": "2025-12-20T14:00:35.481600", "MEAN_MOTION": 15.2917203, "ECCENTRICITY": 0.00065683, "INCLINATION": 97.4332, "RA_OF_ASC_NODE": 106.0614, "ARG_OF_PERICENTER": 232.9584, "MEAN_ANOMALY": 127.1055, "EPHEMERIS_TYPE": 0, "CLASSIFICATION_TYPE": "U", "NORAD_CAT_ID": 58661, "ELEMENT_SET_NO": 999, "REV_AT_EPOCH": 11009, "BSTAR": 0.00022569873, "MEAN_MOTION_DOT": 6.317e-05, "MEAN_MOTION_DDOT": 0}, "tle": {"line1": "1 58661U 23208B   25354.58374400  .00006317  00000+0  22570-3 0  9996", "line2": "2 58661  97.4332 106.0614 0006568 232.9584 127.1055 15.29172030110094"}}, "geometry": {"type": "Point", "coordinates": [-73.75397611420539, -1.341544956833288]}}]}